STARLINK-2100_new
1 17380C 21005AH  21326.11422201  .00009332  00000-0  62510-3 0  3265
2 17380  53.0540 233.2389 0001910  66.8785  32.6567 15.06399360    14
STARLINK-2100_old
1 27380C 21005AH  21325.12661581  .00009306  00000-0  62356-3 0  3259
2 27380  53.0540 237.6723 0001847  65.7683  74.9847 15.06385609    19
